{
  "type": "FeatureCollection",
  "features": [
    {
      "type": "Feature",
      "properties": {
        "norad_id": 66632,
        "name": "STARLINK-35973",
        "group": "last-30-days",
        "lat": -49.1867576163592,
        "lon": 71.62908625878927,
        "alt_km": 411.4144377909506,
        "timestamp": "2025-12-11T20:41:13.848078+00:00",
        "meta_object_name": "STARLINK-35973",
        "meta_object_id": "2025-271R",
        "meta_epoch": "2025-12-11T14:00:01.999872",
        "meta_mean_motion": 15.54897957,
        "meta_eccentricity": 0.000114,
        "meta_inclination": 53.1597,
        "meta_ra_of_asc_node": 192.7254,
        "meta_arg_of_pericenter": 86.8694,
        "meta_mean_anomaly": 44.3403,
        "meta_ephemeris_type": 0,
        "meta_classification_type": "U",
        "meta_norad_cat_id": 66632,
        "meta_element_set_no": 999,
        "meta_rev_at_epoch": 399,
        "meta_bstar": -0.033256155,
        "meta_mean_motion_dot": -0.02021053,
        "meta_mean_motion_ddot": 0,
        "tle_line1": "1 66632U 25271R   25345.58335648 -.02021053  00000+0 -33256-1 0  9995",
        "tle_line2": "2 66632  53.1597 192.7254 0001140  86.8694  44.3403 15.54897957  3991"
      },
      "geometry": {
        "type": "Point",
        "coordinates": [
          71.62908625878927,
          -49.1867576163592
        ]
      }
    },
    {
      "type": "Feature",
      "properties": {
        "norad_id": 66633,
        "name": "STARLINK-35948",
        "group": "last-30-days",
        "lat": -49.91531798222578,
        "lon": 74.35108927965265,
        "alt_km": 411.34456341126315,
        "timestamp": "2025-12-11T20:41:13.848087+00:00",
        "meta_object_name": "STARLINK-35948",
        "meta_object_id": "2025-271S",
        "meta_epoch": "2025-12-11T14:00:01.999872",
        "meta_mean_motion": 15.54901663,
        "meta_eccentricity": 0.00010186,
        "meta_inclination": 53.1603,
        "meta_ra_of_asc_node": 192.7199,
        "meta_arg_of_pericenter": 93.3127,
        "meta_mean_anomaly": 39.8128,
        "meta_ephemeris_type": 0,
        "meta_classification_type": "U",
        "meta_norad_cat_id": 66633,
        "meta_element_set_no": 999,
        "meta_rev_at_epoch": 405,
        "meta_bstar": -0.033408589,
        "meta_mean_motion_dot": -0.02029508,
        "meta_mean_motion_ddot": 0,
        "tle_line1": "1 66633U 25271S   25345.58335648 -.02029508  00000+0 -33409-1 0  9999",
        "tle_line2": "2 66633  53.1603 192.7199 0001018  93.3127  39.8128 15.54901663  4057"
      },
      "geometry": {
        "type": "Point",
        "coordinates": [
          74.35108927965265,
          -49.91531798222578
        ]
      }
    },
    {
      "type": "Feature",
      "properties": {
        "norad_id": 66634,
        "name": "STARLINK-35967",
        "group": "last-30-days",
        "lat": -50.576946262647965,
        "lon": 77.15256138322239,
        "alt_km": 411.4416751734989,
        "timestamp": "2025-12-11T20:41:13.848098+00:00",
        "meta_object_name": "STARLINK-35967",
        "meta_object_id": "2025-271T",
        "meta_epoch": "2025-12-11T14:00:01.999872",
        "meta_mean_motion": 15.54899115,
        "meta_eccentricity": 0.00011673,
        "meta_inclination": 53.1602,
        "meta_ra_of_asc_node": 192.7157,
        "meta_arg_of_pericenter": 98.2125,
        "meta_mean_anomaly": 36.8277,
        "meta_ephemeris_type": 0,
        "meta_classification_type": "U",
        "meta_norad_cat_id": 66634,
        "meta_element_set_no": 999,
        "meta_rev_at_epoch": 398,
        "meta_bstar": -0.033284622,
        "meta_mean_motion_dot": -0.02022693,
        "meta_mean_motion_ddot": 0,
        "tle_line1": "1 66634U 25271T   25345.58335648 -.02022693  00000+0 -33285-1 0  9990",
        "tle_line2": "2 66634  53.1602 192.7157 0001167  98.2125  36.8277 15.54899115  3989"
      },
      "geometry": {
        "type": "Point",
        "coordinates": [
          77.15256138322239,
          -50.576946262647965
        ]
      }
    },
    {
      "type": "Feature",
      "properties": {
        "norad_id": 66635,
        "name": "STARLINK-35955",
        "group": "last-30-days",
        "lat": -51.169535723184104,
        "lon": 80.03226283868669,
        "alt_km": 411.45836505083753,
        "timestamp": "2025-12-11T20:41:13.848110+00:00",
        "meta_object_name": "STARLINK-35955",
        "meta_object_id": "2025-271U",
        "meta_epoch": "2025-12-11T14:00:01.999872",
        "meta_mean_motion": 15.54899213,
        "meta_eccentricity": 0.00011403,
        "meta_inclination": 53.16,
        "meta_ra_of_asc_node": 192.7124,
        "meta_arg_of_pericenter": 96.9112,
        "meta_mean_anomaly": 40.0466,
        "meta_ephemeris_type": 0,
        "meta_classification_type": "U",
        "meta_norad_cat_id": 66635,
        "meta_element_set_no": 999,
        "meta_rev_at_epoch": 405,
        "meta_bstar": -0.033292086,
        "meta_mean_motion_dot": -0.02023089,
        "meta_mean_motion_ddot": 0,
        "tle_line1": "1 66635U 25271U   25345.58335648 -.02023089  00000+0 -33292-1 0  9999",
        "tle_line2": "2 66635  53.1600 192.7124 0001140  96.9112  40.0466 15.54899213  4059"
      },
      "geometry": {
        "type": "Point",
        "coordinates": [
          80.03226283868669,
          -51.169535723184104
        ]
      }
    },
    {
      "type": "Feature",
      "properties": {
        "norad_id": 66636,
        "name": "STARLINK-35968",
        "group": "last-30-days",
        "lat": -51.68957494065803,
        "lon": 82.98111896418568,
        "alt_km": 411.56172655095725,
        "timestamp": "2025-12-11T20:41:13.848121+00:00",
        "meta_object_name": "STARLINK-35968",
        "meta_object_id": "2025-271V",
        "meta_epoch": "2025-12-11T14:00:01.999872",
        "meta_mean_motion": 15.54899693,
        "meta_eccentricity": 0.0001225,
        "meta_inclination": 53.1599,
        "meta_ra_of_asc_node": 192.708,
        "meta_arg_of_pericenter": 90.7216,
        "meta_mean_anomaly": 48.1545,
        "meta_ephemeris_type": 0,
        "meta_classification_type": "U",
        "meta_norad_cat_id": 66636,
        "meta_element_set_no": 999,
        "meta_rev_at_epoch": 405,
        "meta_bstar": -0.033320294,
        "meta_mean_motion_dot": -0.02024705,
        "meta_mean_motion_ddot": 0,
        "tle_line1": "1 66636U 25271V   25345.58335648 -.02024705  00000+0 -33320-1 0  9998",
        "tle_line2": "2 66636  53.1599 192.7080 0001225  90.7216  48.1545 15.54899693  4058"
      },
      "geometry": {
        "type": "Point",
        "coordinates": [
          82.98111896418568,
          -51.68957494065803
        ]
      }
    },
    {
      "type": "Feature",
      "properties": {
        "norad_id": 66637,
        "name": "STARLINK-35953",
        "group": "last-30-days",
        "lat": -52.13432926831005,
        "lon": 85.99480224969284,
        "alt_km": 411.5077270771217,
        "timestamp": "2025-12-11T20:41:13.848137+00:00",
        "meta_object_name": "STARLINK-35953",
        "meta_object_id": "2025-271W",
        "meta_epoch": "2025-12-11T14:00:01.999872",
        "meta_mean_motion": 15.54897067,
        "meta_eccentricity": 0.00011554,
        "meta_inclination": 53.1601,
        "meta_ra_of_asc_node": 192.7041,
        "meta_arg_of_pericenter": 99.4183,
        "meta_mean_anomaly": 41.3758,
        "meta_ephemeris_type": 0,
        "meta_classification_type": "U",
        "meta_norad_cat_id": 66637,
        "meta_element_set_no": 999,
        "meta_rev_at_epoch": 405,
        "meta_bstar": -0.033281983,
        "meta_mean_motion_dot": -0.02022406,
        "meta_mean_motion_ddot": 0,
        "tle_line1": "1 66637U 25271W   25345.58335648 -.02022406  00000+0 -33282-1 0  9992",
        "tle_line2": "2 66637  53.1601 192.7041 0001155  99.4183  41.3758 15.54897067  4055"
      },
      "geometry": {
        "type": "Point",
        "coordinates": [
          85.99480224969284,
          -52.13432926831005
        ]
      }
    },
    {
      "type": "Feature",
      "properties": {
        "norad_id": 66638,
        "name": "STARLINK-35972",
        "group": "last-30-days",
        "lat": -52.49980196153411,
        "lon": 89.061487355054,
        "alt_km": 411.4893947698838,
        "timestamp": "2025-12-11T20:41:13.848151+00:00",
        "meta_object_name": "STARLINK-35972",
        "meta_object_id": "2025-271X",
        "meta_epoch": "2025-12-11T14:00:01.999872",
        "meta_mean_motion": 15.54897755,
        "meta_eccentricity": 0.00011305,
        "meta_inclination": 53.1598,
        "meta_ra_of_asc_node": 192.7007,
        "meta_arg_of_pericenter": 103.0303,
        "meta_mean_anomaly": 39.6776,
        "meta_ephemeris_type": 0,
        "meta_classification_type": "U",
        "meta_norad_cat_id": 66638,
        "meta_element_set_no": 999,
        "meta_rev_at_epoch": 405,
        "meta_bstar": -0.033240576,
        "meta_mean_motion_dot": -0.02020187,
        "meta_mean_motion_ddot": 0,
        "tle_line1": "1 66638U 25271X   25345.58335648 -.02020187  00000+0 -33241-1 0  9992",
        "tle_line2": "2 66638  53.1598 192.7007 0001130 103.0303  39.6776 15.54897755  4056"
      },
      "geometry": {
        "type": "Point",
        "coordinates": [
          89.061487355054,
          -52.49980196153411
        ]
      }
    }
  ]
}